start=new Date('2022-08-28T00:00:00.000Z').valueOf();
sats=[{"CENTER_NAME":"EARTH","TLE_LINE1":"1 52881U 22062BD  22239.91667824  .00088658  00000-0  63105-3 0  9990","OBJECT_NAME":"STARLINK-4192","BSTAR":"0.00063105000000","MEAN_MOTION_DDOT":"0.0000000000000","COUNTRY_CODE":"US","ARG_OF_PERICENTER":"5.8298","PERIOD":"91.537","OBJECT_ID":"2022-062BD","MEAN_ANOMALY":"187.8971","PERIAPSIS":"347.110","INCLINATION":"53.2142","REF_FRAME":"TEME","MEAN_MOTION_DOT":"0.00088658","APOAPSIS":"352.796","DECAY_DATE":null,"GP_ID":"211139126","CLASSIFICATION_TYPE":"U","RCS_SIZE":"LARGE","OBJECT_TYPE":"PAYLOAD","MEAN_MOTION":"15.73132405","ECCENTRICITY":"0.00042260","RA_OF_ASC_NODE":"51.5332","EPOCH":"2022-08-27T22:00:00.999936","TLE_LINE2":"2 52881  53.2142  51.5332 0004226   5.8298 187.8971 15.73132405  1304","MEAN_ELEMENT_THEORY":"SGP4","SITE":"AFETR","TIME_SYSTEM":"UTC","SEMIMAJOR_AXIS":"6728.088","FILE":"3548882","REV_AT_EPOCH":"130","EPHEMERIS_TYPE":"0","NORAD_CAT_ID":"52881","ELEMENT_SET_NO":"999","LAUNCH_DATE":"2022-06-17"},{"EPOCH":"2022-08-27T22:00:00.999936","TLE_LINE2":"2 52882  53.2144  51.5307 0003927  10.3667 185.1059 15.73159444  1307","MEAN_ELEMENT_THEORY":"SGP4","TIME_SYSTEM":"UTC","SITE":"AFETR","SEMIMAJOR_AXIS":"6728.011","EPHEMERIS_TYPE":"0","FILE":"3548882","REV_AT_EPOCH":"130","NORAD_CAT_ID":"52882","ELEMENT_SET_NO":"999","LAUNCH_DATE":"2022-06-17","APOAPSIS":"352.518","MEAN_MOTION_DOT":"0.00089405","DECAY_DATE":null,"CLASSIFICATION_TYPE":"U","GP_ID":"211138980","RCS_SIZE":"LARGE","OBJECT_TYPE":"PAYLOAD","MEAN_MOTION":"15.73159444","ECCENTRICITY":"0.00039270","RA_OF_ASC_NODE":"51.5307","MEAN_MOTION_DDOT":"0.0000000000000","COUNTRY_CODE":"US","ARG_OF_PERICENTER":"10.3667","PERIOD":"91.536","OBJECT_ID":"2022-062BE","PERIAPSIS":"347.234","MEAN_ANOMALY":"185.1059","INCLINATION":"53.2144","REF_FRAME":"TEME","CENTER_NAME":"EARTH","TLE_LINE1":"1 52882U 22062BE  22239.91667824  .00089405  00000-0  63558-3 0  9994","OBJECT_NAME":"STARLINK-4181","BSTAR":"0.00063558000000"},{"RA_OF_ASC_NODE":"126.8017","ECCENTRICITY":"0.00014540","MEAN_MOTION":"15.48849100","OBJECT_TYPE":"PAYLOAD","RCS_SIZE":"LARGE","GP_ID":"211138580","CLASSIFICATION_TYPE":"U","DECAY_DATE":null,"APOAPSIS":"421.082","MEAN_MOTION_DOT":"-0.01058690","ELEMENT_SET_NO":"999","LAUNCH_DATE":"2022-07-07","FILE":"3548882","EPHEMERIS_TYPE":"0","REV_AT_EPOCH":"130","NORAD_CAT_ID":"52986","SEMIMAJOR_AXIS":"6798.229","SITE":"AFETR","TIME_SYSTEM":"UTC","MEAN_ELEMENT_THEORY":"SGP4","EPOCH":"2022-08-27T22:00:00.999936","TLE_LINE2":"2 52986  53.2173 126.8017 0001454  42.4646 304.9675 15.48849100  1306","BSTAR":"-0.02131100000000","TLE_LINE1":"1 52986U 22076A   22239.91667824 -.01058690  00000-0 -21311-1 0  9998","OBJECT_NAME":"STARLINK-4260","CENTER_NAME":"EARTH","REF_FRAME":"TEME","INCLINATION":"53.2173","PERIAPSIS":"419.105","MEAN_ANOMALY":"304.9675","PERIOD":"92.972","ARG_OF_PERICENTER":"42.4646","OBJECT_ID":"2022-076A","MEAN_MOTION_DDOT":"0.0000000000000","COUNTRY_CODE":"US"},{"MEAN_ANOMALY":"260.5447","PERIAPSIS":"537.988","INCLINATION":"53.2187","REF_FRAME":"TEME","COUNTRY_CODE":"US","MEAN_MOTION_DDOT":"0.0000000000000","ARG_OF_PERICENTER":"57.8619","PERIOD":"95.435","OBJECT_ID":"2022-076B","OBJECT_NAME":"STARLINK-4259","TLE_LINE1":"1 52987U 22076B   22239.91667824 -.00059550  00000-0 -37500-2 0  9992","BSTAR":"-0.00375000000000","CENTER_NAME":"EARTH","MEAN_ELEMENT_THEORY":"SGP4","SEMIMAJOR_AXIS":"6917.746","SITE":"AFETR","TIME_SYSTEM":"UTC","NORAD_CAT_ID":"52987","FILE":"3548882","REV_AT_EPOCH":"130","EPHEMERIS_TYPE":"0","LAUNCH_DATE":"2022-07-07","ELEMENT_SET_NO":"999","TLE_LINE2":"2 52987  53.2187 134.1403 0002347  57.8619 260.5447 15.08883829  1301","EPOCH":"2022-08-27T22:00:00.999936","MEAN_MOTION":"15.08883829","ECCENTRICITY":"0.00023470","RA_OF_ASC_NODE":"134.1403","APOAPSIS":"541.235","MEAN_MOTION_DOT":"-0.00059550","DECAY_DATE":null,"CLASSIFICATION_TYPE":"U","GP_ID":"211138328","OBJECT_TYPE":"PAYLOAD","RCS_SIZE":"LARGE"},{"MEAN_MOTION_DDOT":"0.0000000000000","COUNTRY_CODE":"US","OBJECT_ID":"2022-076C","PERIOD":"92.955","ARG_OF_PERICENTER":"61.8065","MEAN_ANOMALY":"287.2586","PERIAPSIS":"418.437","INCLINATION":"53.2173","REF_FRAME":"TEME","CENTER_NAME":"EARTH","OBJECT_NAME":"STARLINK-4291","TLE_LINE1":"1 52988U 22076C   22239.91667824 -.01058488  00000-0 -21091-1 0  9990","BSTAR":"-0.02109100000000","TLE_LINE2":"2 52988  53.2173 126.8153 0001192  61.8065 287.2586 15.49138353  1304","EPOCH":"2022-08-27T22:00:00.999936","MEAN_ELEMENT_THEORY":"SGP4","TIME_SYSTEM":"UTC","SITE":"AFETR","SEMIMAJOR_AXIS":"6797.382","NORAD_CAT_ID":"52988","EPHEMERIS_TYPE":"0","FILE":"3548882","REV_AT_EPOCH":"130","LAUNCH_DATE":"2022-07-07","ELEMENT_SET_NO":"999","APOAPSIS":"420.058","MEAN_MOTION_DOT":"-0.01058488","DECAY_DATE":null,"GP_ID":"211138884","CLASSIFICATION_TYPE":"U","OBJECT_TYPE":"PAYLOAD","RCS_SIZE":"LARGE","MEAN_MOTION":"15.49138353","ECCENTRICITY":"0.00011920","RA_OF_ASC_NODE":"126.8153"},{"DECAY_DATE":null,"MEAN_MOTION_DOT":"-0.00050000","APOAPSIS":"541.002","OBJECT_TYPE":"PAYLOAD","RCS_SIZE":"LARGE","GP_ID":"211139137","CLASSIFICATION_TYPE":"U","MEAN_MOTION":"15.08859945","RA_OF_ASC_NODE":"134.1337","ECCENTRICITY":"0.00019040","EPOCH":"2022-08-27T22:00:00.999936","TLE_LINE2":"2 52989  53.2210 134.1337 0001904  42.1248 296.3549 15.08859945  1301","SITE":"AFETR","SEMIMAJOR_AXIS":"6917.819","TIME_SYSTEM":"UTC","MEAN_ELEMENT_THEORY":"SGP4","ELEMENT_SET_NO":"999","LAUNCH_DATE":"2022-07-07","REV_AT_EPOCH":"130","FILE":"3548882","EPHEMERIS_TYPE":"0","NORAD_CAT_ID":"52989","CENTER_NAME":"EARTH","TLE_LINE1":"1 52989U 22076D   22239.91667824 -.00050000  00000-0 -31436-2 0  9997","OBJECT_NAME":"STARLINK-4293","BSTAR":"-0.00314360000000","OBJECT_ID":"2022-076D","PERIOD":"95.436","ARG_OF_PERICENTER":"42.1248","MEAN_MOTION_DDOT":"0.0000000000000","COUNTRY_CODE":"US","MEAN_ANOMALY":"296.3549","PERIAPSIS":"538.367","REF_FRAME":"TEME","INCLINATION":"53.2210"},{"PERIOD":"95.436","ARG_OF_PERICENTER":"53.4094","OBJECT_ID":"2022-076E","COUNTRY_CODE":"US","MEAN_MOTION_DDOT":"0.0000000000000","MEAN_ANOMALY":"305.0576","PERIAPSIS":"538.265","REF_FRAME":"TEME","INCLINATION":"53.2217","CENTER_NAME":"EARTH","OBJECT_NAME":"STARLINK-4286","TLE_LINE1":"1 52990U 22076E   22239.91667824 -.00022305  00000-0 -13868-2 0  9995","BSTAR":"-0.00138680000000","TLE_LINE2":"2 52990  53.2217 134.1286 0002046  53.4094 305.0576 15.08861125  1306","EPOCH":"2022-08-27T22:00:00.999936","SITE":"AFETR","TIME_SYSTEM":"UTC","SEMIMAJOR_AXIS":"6917.816","MEAN_ELEMENT_THEORY":"SGP4","LAUNCH_DATE":"2022-07-07","ELEMENT_SET_NO":"999","NORAD_CAT_ID":"52990","FILE":"3548882","REV_AT_EPOCH":"130","EPHEMERIS_TYPE":"0","DECAY_DATE":null,"APOAPSIS":"541.096","MEAN_MOTION_DOT":"-0.00022305","RCS_SIZE":"LARGE","OBJECT_TYPE":"PAYLOAD","GP_ID":"211138991","CLASSIFICATION_TYPE":"U","MEAN_MOTION":"15.08861125","RA_OF_ASC_NODE":"134.1286","ECCENTRICITY":"0.00020460"},{"GP_ID":"211138739","CLASSIFICATION_TYPE":"U","RCS_SIZE":"LARGE","OBJECT_TYPE":"PAYLOAD","MEAN_MOTION_DOT":"-0.00026377","APOAPSIS":"541.337","DECAY_DATE":null,"ECCENTRICITY":"0.00024660","RA_OF_ASC_NODE":"134.1275","MEAN_MOTION":"15.08877422","TLE_LINE2":"2 52991  53.2222 134.1275 0002466  57.6233 320.7596 15.08877422  1301","EPOCH":"2022-08-27T22:00:00.999936","NORAD_CAT_ID":"52991","REV_AT_EPOCH":"130","FILE":"3548882","EPHEMERIS_TYPE":"0","LAUNCH_DATE":"2022-07-07","ELEMENT_SET_NO":"999","MEAN_ELEMENT_THEORY":"SGP4","SEMIMAJOR_AXIS":"6917.766","SITE":"AFETR","TIME_SYSTEM":"UTC","CENTER_NAME":"EARTH","BSTAR":"-0.00164350000000","OBJECT_NAME":"STARLINK-4285","TLE_LINE1":"1 52991U 22076F   22239.91667824 -.00026377  00000-0 -16435-2 0  9992","MEAN_MOTION_DDOT":"0.0000000000000","COUNTRY_CODE":"US","PERIOD":"95.435","OBJECT_ID":"2022-076F","ARG_OF_PERICENTER":"57.6233","INCLINATION":"53.2222","REF_FRAME":"TEME","MEAN_ANOMALY":"320.7596","PERIAPSIS":"537.925"},{"TLE_LINE2":"2 52992  53.2222 134.1264 0002102  52.8259 345.5174 15.08874047  1309","EPOCH":"2022-08-27T22:00:00.999936","NORAD_CAT_ID":"52992","FILE":"3548882","EPHEMERIS_TYPE":"0","REV_AT_EPOCH":"130","LAUNCH_DATE":"2022-07-07","ELEMENT_SET_NO":"999","MEAN_ELEMENT_THEORY":"SGP4","SITE":"AFETR","SEMIMAJOR_AXIS":"6917.776","TIME_SYSTEM":"UTC","GP_ID":"211138473","CLASSIFICATION_TYPE":"U","RCS_SIZE":"LARGE","OBJECT_TYPE":"PAYLOAD","APOAPSIS":"541.095","MEAN_MOTION_DOT":"-0.00023680","DECAY_DATE":null,"ECCENTRICITY":"0.00021020","RA_OF_ASC_NODE":"134.1264","MEAN_MOTION":"15.08874047","MEAN_MOTION_DDOT":"0.0000000000000","COUNTRY_CODE":"US","PERIOD":"95.435","OBJECT_ID":"2022-076G","ARG_OF_PERICENTER":"52.8259","INCLINATION":"53.2222","REF_FRAME":"TEME","PERIAPSIS":"538.187","MEAN_ANOMALY":"345.5174","CENTER_NAME":"EARTH","BSTAR":"-0.00147320000000","OBJECT_NAME":"STARLINK-4269","TLE_LINE1":"1 52992U 22076G   22239.91667824 -.00023680  00000-0 -14732-2 0  9995"},{"INCLINATION":"53.2173","REF_FRAME":"TEME","PERIAPSIS":"417.350","MEAN_ANOMALY":"313.8323","MEAN_MOTION_DDOT":"0.0000000000000","COUNTRY_CODE":"US","ARG_OF_PERICENTER":"37.1094","PERIOD":"92.938","OBJECT_ID":"2022-076H","BSTAR":"-0.02089200000000","TLE_LINE1":"1 52993U 22076H   22239.91667824 -.01059154  00000-0 -20892-1 0  9995","OBJECT_NAME":"STARLINK-4264","CENTER_NAME":"EARTH","REV_AT_EPOCH":"130","FILE":"3548882","EPHEMERIS_TYPE":"0","NORAD_CAT_ID":"52993","ELEMENT_SET_NO":"999","LAUNCH_DATE":"2022-07-07","MEAN_ELEMENT_THEORY":"SGP4","SITE":"AFETR","TIME_SYSTEM":"UTC","SEMIMAJOR_AXIS":"6796.552","EPOCH":"2022-08-27T22:00:00.999936","TLE_LINE2":"2 52993  53.2173 126.8284 0001570  37.1094 313.8323 15.49422144  1302","ECCENTRICITY":"0.00015700","RA_OF_ASC_NODE":"126.8284","MEAN_MOTION":"15.49422144","GP_ID":"211139294","CLASSIFICATION_TYPE":"U","RCS_SIZE":"MEDIUM","OBJECT_TYPE":"PAYLOAD","APOAPSIS":"419.484","MEAN_MOTION_DOT":"-0.01059154","DECAY_DATE":null}];
